{"generatedAt":"2026-04-19T07:38:58.008437Z","satellites":[{"name":"STARLINK-36947","tle1":"1 68033U 26040U   26107.76673365  .00029812  00000+0  92198-3 0  9994","tle2":"2 68033  97.2861  57.3358 0001877  95.6148 264.5309 15.33448789  7459"},{"name":"STARLINK-36939","tle1":"1 68034U 26040V   26108.91668981 -.00012951  00000+0 -38929-3 0  9991","tle2":"2 68034  97.2864  58.4578 0001224 113.3849  86.2463 15.34265461  6017"},{"name":"STARLINK-36943","tle1":"1 68035U 26040W   26108.59872747  .00033775  00000+0  10426-2 0  9999","tle2":"2 68035  97.2874  58.1960 0000211 121.5434 238.5829 15.33482898  8718"},{"name":"STARLINK-36906","tle1":"1 68036U 26040X   26108.91668981 -.00013904  00000+0 -41810-3 0  9995","tle2":"2 68036  97.2856  58.4803 0001184  98.7824 154.7132 15.34269719  5951"},{"name":"STARLINK-36388","tle1":"1 68037U 26040Y   26107.76162335  .00023940  00000+0  72192-3 0  9996","tle2":"2 68037  97.2846  57.3417 0002398  93.5445 266.6073 15.34293931  7457"},{"name":"STARLINK-36895","tle1":"1 68038U 26040Z   26107.76129279  .00016489  00000+0  51188-3 0  9999","tle2":"2 68038  97.2892  57.3420 0001141 104.7908 255.3461 15.33449469  7451"},{"name":"STARLINK-36373","tle1":"1 68039U 26040AA  26108.91668981 -.00003630  00000+0 -11007-3 0  9998","tle2":"2 68039  97.2857  58.4746 0002255  84.0693 155.0561 15.33467207  6012"},{"name":"STARLINK-36711","tle1":"1 68040U 26041A   26108.91668981 -.00905093  00000+0 -21394-1 0  9993","tle2":"2 68040  53.1604 223.3510 0001145  82.0575 248.0567 15.43804495  6004"},{"name":"STARLINK-36825","tle1":"1 68041U 26041B   26108.91668981 -.00008693  00000+0 -21305-3 0  9998","tle2":"2 68041  53.1599 222.7580 0001152  28.7083 230.2549 15.38842616  6023"},{"name":"STARLINK-36925","tle1":"1 68042U 26041C   26108.00004630 -.00215938  00000+0 -39685-2 0  9995","tle2":"2 68042  53.1602 227.6745 0000937  78.1734 205.5580 15.49409739  5923"},{"name":"STARLINK-36902","tle1":"1 68043U 26041D   26108.91668981 -.01477623  00000+0 -52069-1 0  9993","tle2":"2 68043  53.1599 223.1150 0001186  75.0411   7.3106 15.32103814  6026"},{"name":"STARLINK-36966","tle1":"1 68044U 26041E   26108.91668981  .00011033  00000+0  25384-3 0  9992","tle2":"2 68044  53.1603 223.3781 0001126  64.7732 251.8314 15.43185701  6002"},{"name":"STARLINK-36864","tle1":"1 68045U 26041F   26108.91668981 -.00051956  00000+0 -13319-2 0  9997","tle2":"2 68045  53.1650 223.1890 0000634  50.4916 359.1045 15.38833569  5955"},{"name":"STARLINK-36321","tle1":"1 68046U 26041G   26108.91668981 -.00785581  00000+0 -28133-1 0  9995","tle2":"2 68046  53.1606 223.3341 0001739  87.2063 246.5505 15.30707299  6029"},{"name":"STARLINK-36181","tle1":"1 68047U 26041H   26108.91668981 -.00010971  00000+0 -34977-3 0  9995","tle2":"2 68047  53.1594 223.0646 0001047  72.0265  34.5516 15.31015648  6027"},{"name":"STARLINK-36318","tle1":"1 68048U 26041J   26108.91668981  .00005298  00000+0  12671-3 0  9997","tle2":"2 68048  53.1596 222.8616 0001292  71.9996 140.0799 15.43206611  5957"},{"name":"STARLINK-36885","tle1":"1 68049U 26041K   26108.91668981  .00000180  00000+0  15408-4 0  9995","tle2":"2 68049  53.1683 223.5972 0001479  62.2209 144.2852 15.37129955  6006"},{"name":"STARLINK-36945","tle1":"1 68050U 26041L   26108.91668981 -.00005429  00000+0 -12933-3 0  9999","tle2":"2 68050  53.1599 222.8096 0001222  80.2009 153.6150 15.38810779  6026"},{"name":"STARLINK-35911","tle1":"1 68051U 26041M   26108.91668981 -.00770851  00000+0 -26864-1 0  9994","tle2":"2 68051  53.1594 223.0816 0000492  76.9672  20.9133 15.31539065  5969"},{"name":"STARLINK-35808","tle1":"1 68052U 26041N   26108.91668981 -.00006763  00000+0 -21649-3 0  9997","tle2":"2 68052  53.1607 223.3667 0001229  54.0208 262.5418 15.30191380  6024"},{"name":"STARLINK-36919","tle1":"1 68053U 26041P   26108.91668981 -.03118918  00000+0 -10997+0 0  9997","tle2":"2 68053  53.1595 223.0067 0001230  20.8838 113.7201 15.33106155  6020"},{"name":"STARLINK-36924","tle1":"1 68054U 26041Q   26107.62871268  .00043116  00000+0  77860-3 0  9997","tle2":"2 68054  53.1597 230.1965 0000394 346.6824  13.4174 15.49323957  7331"},{"name":"STARLINK-35998","tle1":"1 68055U 26041R   26108.91668981 -.01619553  00000+0 -57233-1 0  9994","tle2":"2 68055  53.1608 223.2654 0001035  89.9278 277.5697 15.31786326  5960"},{"name":"STARLINK-36845","tle1":"1 68056U 26041S   26108.91668981 -.00007019  00000+0 -17013-3 0  9996","tle2":"2 68056  53.1597 222.8906 0001770  79.6854 114.2055 15.38819859  6034"},{"name":"STARLINK-36954","tle1":"1 68057U 26041T   26108.91668981  .00003746  00000+0  92322-4 0  9995","tle2":"2 68057  53.1592 222.9240 0001265  89.7512  90.6189 15.43198803  6012"},{"name":"STARLINK-36899","tle1":"1 68058U 26041U   26107.79394468  .00033227  00000+0  60235-3 0  9991","tle2":"2 68058  53.1619 229.0865 0000357 331.8338  28.2652 15.49336422  7360"},{"name":"STARLINK-36917","tle1":"1 68059U 26041V   26108.91668981 -.00005477  00000+0 -13053-3 0  9995","tle2":"2 68059  53.1597 222.9756 0001291  65.5965  86.8680 15.38816157  6010"},{"name":"STARLINK-36959","tle1":"1 68060U 26041W   26108.91668981 -.00004296  00000+0 -10606-3 0  9996","tle2":"2 68060  53.1605 223.2420 0001117  76.7728 303.1699 15.37121786  5854"},{"name":"STARLINK-36915","tle1":"1 68061U 26041X   26108.91668981 -.00012913  00000+0 -32175-3 0  9997","tle2":"2 68061  53.1593 222.9081 0001422  44.7034 139.9489 15.38824899  6033"},{"name":"STARLINK-36952","tle1":"1 68062U 26041Y   26108.91668981 -.00010682  00000+0 -27951-3 0  9995","tle2":"2 68062  53.1603 223.4196 0001346  89.7568 203.2654 15.37132087  5853"},{"name":"STARLINK-37000","tle1":"1 68063U 26041Z   26108.91668981 -.00004723  00000+0 -11115-3 0  9990","tle2":"2 68063  53.1604 223.3465 0001036  54.6026 273.2660 15.38814345  6028"},{"name":"STARLINK-36996","tle1":"1 68064U 26041AA  26108.91668981  .00012015  00000+0  31831-3 0  9999","tle2":"2 68064  53.1603 223.1010 0001569  71.2761  17.0335 15.38793232  6039"},{"name":"STARLINK-36836","tle1":"1 68065U 26041AB  26108.91668981 -.01004697  00000+0 -35129-1 0  9992","tle2":"2 68065  53.1593 222.9450 0000690  68.6163  94.5142 15.31689826  6035"},{"name":"STARLINK-36976","tle1":"1 68066U 26041AC  26108.91668981 -.00003605  00000+0 -82373-4 0  9996","tle2":"2 68066  53.1597 223.0663 0001062  47.7809  58.9829 15.38836642  6018"},{"name":"STARLINK-36929","tle1":"1 68067U 26041AD  26107.66299521  .00023276  00000+0  42506-3 0  9995","tle2":"2 68067  53.1615 229.6886 0001275  92.9305 267.1850 15.49326180  7346"},{"name":"STARLINK-36990","tle1":"1 68068U 26041AE  26108.91668981 -.00004757  00000+0 -14851-3 0  9992","tle2":"2 68068  53.1600 223.4241 0001076  64.2839 217.2975 15.30217227  6031"},{"name":"STARLINK-36766","tle1":"1 68069U 26042A   26107.96114443  .00224265  00000+0  14270-2 0  9997","tle2":"2 68069  53.1618 358.7627 0000755 185.6737 174.4275 15.75265937  8285"},{"name":"STARLINK-36823","tle1":"1 68070U 26042B   26107.88408293  .00160705  00000+0  10324-2 0  9993","tle2":"2 68070  53.1580 358.9882 0000474  29.0744 331.0303 15.75245545  8272"},{"name":"STARLINK-36970","tle1":"1 68071U 26042C   26107.91164633  .00156591  00000+0  10028-2 0  9994","tle2":"2 68071  53.1576 359.1697 0000984  36.6183 323.4904 15.75331372  8278"},{"name":"STARLINK-36972","tle1":"1 68072U 26042D   26107.95239674  .00243936  00000+0  15493-2 0  9998","tle2":"2 68072  53.1594 358.7080 0000930  78.5359 281.5766 15.75249989  8284"},{"name":"STARLINK-37074","tle1":"1 68073U 26042E   26107.90224816  .00196492  00000+0  12509-2 0  9995","tle2":"2 68073  53.1576 359.1056 0000476 175.1330 184.9695 15.75339999  8278"},{"name":"STARLINK-37045","tle1":"1 68074U 26042F   26107.92527230 -.00067983  00000+0 -44502-3 0  9997","tle2":"2 68074  53.1589 359.2627 0001687  21.8700 338.2392 15.75126918  8274"},{"name":"STARLINK-37026","tle1":"1 68075U 26042G   26107.68087797  .00158232  00000+0  10154-2 0  9991","tle2":"2 68075  53.1568   0.5800 0002377  97.5836 262.5455 15.75278596  8233"},{"name":"STARLINK-37023","tle1":"1 68076U 26042H   26107.92947021  .00127786  00000+0  82586-3 0  9993","tle2":"2 68076  53.1582 359.2903 0000855 116.9222 243.1886 15.75221624  8279"},{"name":"STARLINK-37036","tle1":"1 68077U 26042J   26107.80290636  .00244053  00000+0  15462-2 0  9999","tle2":"2 68077  53.1568 359.9186 0001057 126.2894 233.8224 15.75305402  8255"},{"name":"STARLINK-36973","tle1":"1 68078U 26042K   26107.96569909 -.00236439  00000+0 -15528-2 0  9993","tle2":"2 68078  53.1577 358.7895 0001918 256.0391 104.0416 15.75654850  8289"},{"name":"STARLINK-37063","tle1":"1 68079U 26042L   26107.80710963 -.00672063  00000+0 -48850-2 0  9996","tle2":"2 68079  53.1588 359.2110 0002064  43.0642 317.0539 15.74537847  8269"},{"name":"STARLINK-37051","tle1":"1 68080U 26042M   26107.97054999  .00115381  00000+0  74626-3 0  9990","tle2":"2 68080  53.1575 358.8236 0000689 109.9161 250.1934 15.75250228  8284"},{"name":"STARLINK-37066","tle1":"1 68081U 26042N   26107.92039298  .00151765  00000+0  97675-3 0  9996","tle2":"2 68081  53.1590 359.2289 0000916  64.0746 296.0368 15.75234049  8270"},{"name":"STARLINK-37054","tle1":"1 68082U 26042P   26107.93844999  .00202931  00000+0  12954-2 0  9998","tle2":"2 68082  53.1591 358.6093 0001018  43.2780 316.8320 15.75257862  8287"},{"name":"STARLINK-37065","tle1":"1 68083U 26042Q   26107.92492880  .00100969  00000+0  65417-3 0  9997","tle2":"2 68083  53.1582 359.2580 0001008 117.9809 242.1313 15.75268063  8273"},{"name":"STARLINK-37037","tle1":"1 68084U 26042R   26107.97022158  .00229910  00000+0  14603-2 0  9998","tle2":"2 68084  53.1576 358.8210 0000750 110.2225 249.8876 15.75289652  8289"},{"name":"STARLINK-37068","tle1":"1 68085U 26042S   26107.95693204  .00144968  00000+0  93254-3 0  9992","tle2":"2 68085  53.1600 358.7341 0000418  63.8702 296.2362 15.75268381  8288"},{"name":"STARLINK-37067","tle1":"1 68086U 26042T   26107.93877770  .00210362  00000+0  13421-2 0  9992","tle2":"2 68086  53.1584 358.6128 0001006  17.1720 342.9334 15.75246861  8285"}]}